start=new Date('2022-12-04T00:00:00.000Z').valueOf();
sats=[{"CENTER_NAME":"EARTH","SEMIMAJOR_AXIS":"6925.340","RA_OF_ASC_NODE":"317.7117","INCLINATION":"53.0572","TIME_SYSTEM":"UTC","OBJECT_ID":"2020-012AE","MEAN_ELEMENT_THEORY":"SGP4","MEAN_MOTION_DDOT":"0.0000000000000","OBJECT_TYPE":"PAYLOAD","EPOCH":"2022-12-03T16:31:48.452736","MEAN_ANOMALY":"295.1391","ELEMENT_SET_NO":"999","EPHEMERIS_TYPE":"0","ARG_OF_PERICENTER":"64.9760","GP_ID":"219476820","TLE_LINE1":"1 45206U 20012AE  22337.68875524  .00000735  00000-0  68210-4 0  9990","NORAD_CAT_ID":"45206","SITE":"AFETR","CLASSIFICATION_TYPE":"U","RCS_SIZE":"LARGE","COUNTRY_CODE":"US","REV_AT_EPOCH":"15478","APOAPSIS":"548.286","BSTAR":"0.00006821000000","TLE_LINE2":"2 45206  53.0572 317.7117 0001560  64.9760 295.1391 15.06402683154782","FILE":"3680595","LAUNCH_DATE":"2020-02-17","ECCENTRICITY":"0.00015600","DECAY_DATE":null,"MEAN_MOTION_DOT":"0.00000735","PERIAPSIS":"546.125","REF_FRAME":"TEME","PERIOD":"95.592","MEAN_MOTION":"15.06402683","OBJECT_NAME":"STARLINK-1209"},{"ELEMENT_SET_NO":"999","MEAN_ANOMALY":"298.3738","EPHEMERIS_TYPE":"0","ARG_OF_PERICENTER":"61.7425","RA_OF_ASC_NODE":"338.6394","OBJECT_ID":"2020-012AF","TIME_SYSTEM":"UTC","INCLINATION":"53.0562","CENTER_NAME":"EARTH","SEMIMAJOR_AXIS":"6925.375","OBJECT_TYPE":"PAYLOAD","EPOCH":"2022-12-03T11:37:15.124512","MEAN_MOTION_DDOT":"0.0000000000000","MEAN_ELEMENT_THEORY":"SGP4","PERIOD":"95.593","REF_FRAME":"TEME","MEAN_MOTION_DOT":"-0.00000003","PERIAPSIS":"546.043","OBJECT_NAME":"STARLINK-1210","MEAN_MOTION":"15.06391454","TLE_LINE1":"1 45207U 20012AF  22337.48420283 -.00000003  00000-0  18675-4 0  9996","SITE":"AFETR","NORAD_CAT_ID":"45207","GP_ID":"219445785","APOAPSIS":"548.436","REV_AT_EPOCH":"15542","DECAY_DATE":null,"ECCENTRICITY":"0.00017280","TLE_LINE2":"2 45207  53.0562 338.6394 0001728  61.7425 298.3738 15.06391454155425","FILE":"3680253","LAUNCH_DATE":"2020-02-17","BSTAR":"0.00001867500000","COUNTRY_CODE":"US","CLASSIFICATION_TYPE":"U","RCS_SIZE":"LARGE"},{"MEAN_ELEMENT_THEORY":"SGP4","EPOCH":"2022-12-03T17:35:44.602368","OBJECT_TYPE":"PAYLOAD","MEAN_MOTION_DDOT":"0.0000000000000","CENTER_NAME":"EARTH","SEMIMAJOR_AXIS":"6927.853","RA_OF_ASC_NODE":"337.5226","TIME_SYSTEM":"UTC","OBJECT_ID":"2020-012AG","INCLINATION":"53.0012","EPHEMERIS_TYPE":"0","ARG_OF_PERICENTER":"76.1747","MEAN_ANOMALY":"283.9409","ELEMENT_SET_NO":"999","COUNTRY_CODE":"US","RCS_SIZE":"LARGE","CLASSIFICATION_TYPE":"U","REV_AT_EPOCH":"15534","APOAPSIS":"550.764","ECCENTRICITY":"0.00015110","DECAY_DATE":null,"TLE_LINE2":"2 45208  53.0012 337.5226 0001511  76.1747 283.9409 15.05583374155344","BSTAR":"0.00002147900000","FILE":"3680595","LAUNCH_DATE":"2020-02-17","GP_ID":"219476318","TLE_LINE1":"1 45208U 20012AG  22337.73315512  .00000034  00000-0  21479-4 0  9992","SITE":"AFETR","NORAD_CAT_ID":"45208","MEAN_MOTION":"15.05583374","OBJECT_NAME":"STARLINK-1211","MEAN_MOTION_DOT":"0.00000034","PERIAPSIS":"548.671","PERIOD":"95.644","REF_FRAME":"TEME"},{"NORAD_CAT_ID":"45210","SITE":"AFETR","TLE_LINE1":"1 45210U 20012AJ  22337.48788141  .00000115  00000-0  26614-4 0  9995","GP_ID":"219454398","TLE_LINE2":"2 45210  53.0555 338.6318 0001719  58.3265 301.7892 15.06401306154484","FILE":"3680364","BSTAR":"0.00002661400000","LAUNCH_DATE":"2020-02-17","ECCENTRICITY":"0.00017190","DECAY_DATE":null,"APOAPSIS":"548.400","REV_AT_EPOCH":"15448","CLASSIFICATION_TYPE":"U","RCS_SIZE":"LARGE","COUNTRY_CODE":"US","REF_FRAME":"TEME","PERIOD":"95.592","PERIAPSIS":"546.019","MEAN_MOTION_DOT":"0.00000115","OBJECT_NAME":"STARLINK-1219","MEAN_MOTION":"15.06401306","INCLINATION":"53.0555","TIME_SYSTEM":"UTC","OBJECT_ID":"2020-012AJ","RA_OF_ASC_NODE":"338.6318","CENTER_NAME":"EARTH","SEMIMAJOR_AXIS":"6925.345","MEAN_MOTION_DDOT":"0.0000000000000","OBJECT_TYPE":"PAYLOAD","EPOCH":"2022-12-03T11:42:32.953824","MEAN_ELEMENT_THEORY":"SGP4","ELEMENT_SET_NO":"999","MEAN_ANOMALY":"301.7892","EPHEMERIS_TYPE":"0","ARG_OF_PERICENTER":"58.3265"},{"PERIOD":"95.592","REF_FRAME":"TEME","MEAN_MOTION_DOT":"0.00000632","PERIAPSIS":"546.124","OBJECT_NAME":"STARLINK-1231","MEAN_MOTION":"15.06394607","TLE_LINE1":"1 45212U 20012AL  22337.72010644  .00000632  00000-0  61304-4 0  9999","SITE":"AFETR","NORAD_CAT_ID":"45212","GP_ID":"219477319","APOAPSIS":"548.336","REV_AT_EPOCH":"15541","DECAY_DATE":null,"ECCENTRICITY":"0.00015970","TLE_LINE2":"2 45212  53.0557 337.5917 0001597  61.3554 298.7596 15.06394607155415","FILE":"3680595","LAUNCH_DATE":"2020-02-17","BSTAR":"0.00006130400000","COUNTRY_CODE":"US","RCS_SIZE":"LARGE","CLASSIFICATION_TYPE":"U","ELEMENT_SET_NO":"999","MEAN_ANOMALY":"298.7596","EPHEMERIS_TYPE":"0","ARG_OF_PERICENTER":"61.3554","RA_OF_ASC_NODE":"337.5917","OBJECT_ID":"2020-012AL","TIME_SYSTEM":"UTC","INCLINATION":"53.0557","SEMIMAJOR_AXIS":"6925.365","CENTER_NAME":"EARTH","OBJECT_TYPE":"PAYLOAD","EPOCH":"2022-12-03T17:16:57.196416","MEAN_MOTION_DDOT":"0.0000000000000","MEAN_ELEMENT_THEORY":"SGP4"},{"APOAPSIS":"438.164","REV_AT_EPOCH":"15642","DECAY_DATE":null,"ECCENTRICITY":"0.00049970","FILE":"3680253","TLE_LINE2":"2 45213  53.0574 267.1960 0004997  63.6048 296.5470 15.43850403156422","LAUNCH_DATE":"2020-02-17","BSTAR":"0.00031492000000","COUNTRY_CODE":"US","RCS_SIZE":"LARGE","CLASSIFICATION_TYPE":"U","TLE_LINE1":"1 45213U 20012AM  22337.23840871  .00014117  00000-0  31492-3 0  9996","SITE":"AFETR","NORAD_CAT_ID":"45213","GP_ID":"219445288","OBJECT_NAME":"STARLINK-1232","MEAN_MOTION":"15.43850403","PERIOD":"93.273","REF_FRAME":"TEME","MEAN_MOTION_DOT":"0.00014117","PERIAPSIS":"431.356","OBJECT_TYPE":"PAYLOAD","EPOCH":"2022-12-03T05:43:18.512544","MEAN_MOTION_DDOT":"0.0000000000000","MEAN_ELEMENT_THEORY":"SGP4","RA_OF_ASC_NODE":"267.1960","TIME_SYSTEM":"UTC","OBJECT_ID":"2020-012AM","INCLINATION":"53.0574","SEMIMAJOR_AXIS":"6812.895","CENTER_NAME":"EARTH","EPHEMERIS_TYPE":"0","ARG_OF_PERICENTER":"63.6048","ELEMENT_SET_NO":"999","MEAN_ANOMALY":"296.5470"},{"CLASSIFICATION_TYPE":"U","RCS_SIZE":"LARGE","COUNTRY_CODE":"US","APOAPSIS":"548.428","REV_AT_EPOCH":"15539","BSTAR":"-0.00032593000000","TLE_LINE2":"2 45214  53.0568 339.4812 0001842  56.1431 303.9733 15.06419841155390","FILE":"3680253","LAUNCH_DATE":"2020-02-17","DECAY_DATE":null,"ECCENTRICITY":"0.00018420","GP_ID":"219446035","TLE_LINE1":"1 45214U 20012AN  22337.29526125 -.00005136  00000-0 -32593-3 0  9992","NORAD_CAT_ID":"45214","SITE":"AFETR","MEAN_MOTION":"15.06419841","OBJECT_NAME":"STARLINK-1233","MEAN_MOTION_DOT":"-0.00005136","PERIAPSIS":"545.877","REF_FRAME":"TEME","PERIOD":"95.591","MEAN_ELEMENT_THEORY":"SGP4","MEAN_MOTION_DDOT":"0.0000000000000","OBJECT_TYPE":"PAYLOAD","EPOCH":"2022-12-03T07:05:10.572000","SEMIMAJOR_AXIS":"6925.288","CENTER_NAME":"EARTH","RA_OF_ASC_NODE":"339.4812","INCLINATION":"53.0568","OBJECT_ID":"2020-012AN","TIME_SYSTEM":"UTC","ARG_OF_PERICENTER":"56.1431","EPHEMERIS_TYPE":"0","MEAN_ANOMALY":"303.9733","ELEMENT_SET_NO":"999"},{"REV_AT_EPOCH":"15529","APOAPSIS":"548.524","DECAY_DATE":null,"ECCENTRICITY":"0.00018750","FILE":"3680253","TLE_LINE2":"2 45215  53.0539 340.6990 0001875  62.5756 297.5423 15.06396176155295","BSTAR":"0.00001459600000","LAUNCH_DATE":"2020-02-17","COUNTRY_CODE":"US","RCS_SIZE":"LARGE","CLASSIFICATION_TYPE":"U","TLE_LINE1":"1 45215U 20012AP  22337.02714079 -.00000064  00000-0  14596-4 0  9999","SITE":"AFETR","NORAD_CAT_ID":"45215","GP_ID":"219444288","OBJECT_NAME":"STARLINK-1245","MEAN_MOTION":"15.06396176","PERIOD":"95.592","REF_FRAME":"TEME","MEAN_MOTION_DOT":"-0.00000064","PERIAPSIS":"545.927","EPOCH":"2022-12-03T00:39:04.964256","OBJECT_TYPE":"PAYLOAD","MEAN_MOTION_DDOT":"0.0000000000000","MEAN_ELEMENT_THEORY":"SGP4","RA_OF_ASC_NODE":"340.6990","OBJECT_ID":"2020-012AP","TIME_SYSTEM":"UTC","INCLINATION":"53.0539","SEMIMAJOR_AXIS":"6925.360","CENTER_NAME":"EARTH","EPHEMERIS_TYPE":"0","ARG_OF_PERICENTER":"62.5756","ELEMENT_SET_NO":"999","MEAN_ANOMALY":"297.5423"},{"RA_OF_ASC_NODE":"337.5355","INCLINATION":"53.0554","TIME_SYSTEM":"UTC","OBJECT_ID":"2020-012AR","CENTER_NAME":"EARTH","SEMIMAJOR_AXIS":"6925.343","MEAN_MOTION_DDOT":"0.0000000000000","EPOCH":"2022-12-03T17:32:51.357408","OBJECT_TYPE":"PAYLOAD","MEAN_ELEMENT_THEORY":"SGP4","ELEMENT_SET_NO":"999","MEAN_ANOMALY":"295.0320","EPHEMERIS_TYPE":"0","ARG_OF_PERICENTER":"65.0831","TLE_LINE1":"1 45217U 20012AR  22337.73114997  .00000215  00000-0  33302-4 0  9995","NORAD_CAT_ID":"45217","SITE":"AFETR","GP_ID":"219476821","REV_AT_EPOCH":"15546","APOAPSIS":"548.288","FILE":"3680595","TLE_LINE2":"2 45217  53.0554 337.5355 0001559  65.0831 295.0320 15.06401726155461","LAUNCH_DATE":"2020-02-17","BSTAR":"0.00003330200000","DECAY_DATE":null,"ECCENTRICITY":"0.00015590","CLASSIFICATION_TYPE":"U","RCS_SIZE":"LARGE","COUNTRY_CODE":"US","REF_FRAME":"TEME","PERIOD":"95.592","MEAN_MOTION_DOT":"0.00000215","PERIAPSIS":"546.129","OBJECT_NAME":"STARLINK-1271","MEAN_MOTION":"15.06401726"},{"REF_FRAME":"TEME","PERIOD":"95.593","PERIAPSIS":"546.288","MEAN_MOTION_DOT":"-0.00001192","OBJECT_NAME":"STARLINK-1187","MEAN_MOTION":"15.06391759","NORAD_CAT_ID":"45219","SITE":"AFETR","TLE_LINE1":"1 45219U 20012AT  22337.66296971 -.00001192  00000-0 -61169-4 0  9991","GP_ID":"219477066","FILE":"3680595","TLE_LINE2":"2 45219  53.0550 317.8356 0001373  72.0664 288.0475 15.06391759155745","BSTAR":"-0.00006116900000","LAUNCH_DATE":"2020-02-17","DECAY_DATE":null,"ECCENTRICITY":"0.00013730","APOAPSIS":"548.190","REV_AT_EPOCH":"15574","CLASSIFICATION_TYPE":"U","RCS_SIZE":"LARGE","COUNTRY_CODE":"US","ELEMENT_SET_NO":"999","MEAN_ANOMALY":"288.0475","EPHEMERIS_TYPE":"0","ARG_OF_PERICENTER":"72.0664","INCLINATION":"53.0550","TIME_SYSTEM":"UTC","OBJECT_ID":"2020-012AT","RA_OF_ASC_NODE":"317.8356","CENTER_NAME":"EARTH","SEMIMAJOR_AXIS":"6925.374","MEAN_MOTION_DDOT":"0.0000000000000","OBJECT_TYPE":"PAYLOAD","EPOCH":"2022-12-03T15:54:40.582944","MEAN_ELEMENT_THEORY":"SGP4"}];
